name,city,state,phone,email
Avighna Pathlabs | Pathology Lab | Blood Test | Pathology lab in bavdhan,Pune,Maharashtra,919272172578,
Spect Lab,Pune,Maharashtra,918975758509,
UNiCare Path Lab,Pune,Maharashtra,917620768324,
Dr.Vivek Shejole[MBBS MD MEDICINE] Trusted Best Physician In Baner : General Physician & Diabetologist In Baner,Pune,Maharashtra,919561067636,
Sahayog Pathology,Pune,Maharashtra,918007342424,
SHREE PATHOLOGY & CLINICAL LABORATORY,Pune,Maharashtra,919766272097,
CARE WELL PATHOLOGY LAB,Pune,Maharashtra,917391964996,
EMF Pathology,Pune,Maharashtra,919607966640,
MEDITECH DIAGNOSTIC CENTRE PATHOLOGY LAB BAVDHAN PUNE,Pune,Maharashtra,919325147013,
Dhande Pathlab Bavdhan,Pune,Maharashtra,919699984428,
Medicare Diagnostic Pathology Lab,Pune,Maharashtra,917039541561,
CareFirst Diagnostics | Pathlogy lab | Baner | Pune,Pune,Maharashtra,918087803330,
Sahyadri Speciality Labs Baner,Pune,Maharashtra,917875161616,
SRL-MAULI DIAGNOSTICS (PATH LAB & HEALTHCARE CENTER),Pune,Maharashtra,919970038358,
Opal Histopathology Center,Pune,Maharashtra,919623009290,
Chaitanya Laboratories: Specialized Veterinary Diagnostics and Pharmaceutical Research,Pune,Maharashtra,918484849391,
Dhande Pathlab Baner Main Road,Pune,Maharashtra,917498876838,
Perfect Pathology Laboratory,Pune,Maharashtra,919067476031,
Sahaydri Speciality Labs Balewadi,Pune,Maharashtra,917875161616,
BIOMEGA Healthcare,Pune,Maharashtra,918669612057,
Sahyadri speciality laboratory,Pune,Maharashtra,919623870063,
G1 PATHOLOGY LAB,Pune,Maharashtra,919673521051,
Hoffen Diagnostics,Pune,Maharashtra,919814860870,
Poona diagnostic centre,Pune,Maharashtra,917378543010,
DMS Pathology,Pune,Maharashtra,919146039607,
Shree Diagnostics,Pune,Maharashtra,919168216444,
Lopmudra Diagnostics and Wellness Center,Pune,Maharashtra,918087122022,
Vitalife Clinic Bavdhan,Pune,Maharashtra,918928100300,
AROGYAM PATHOLOGY LABORATORY,Pune,Maharashtra,919225709500,
D.M.S.Diagnostics,Pune,Maharashtra,919146039601,
GPR Diagnostics,Pune,Maharashtra,918806165229,
HEALTHAURA PATHOLOGY LAB,Pune,Maharashtra,919096770700,
Mediplus Pathology Lab - Blood Collection @Home / Diagnostic centre in Pune,Pune,Maharashtra,919834359264,
Disha Diagnostics Baner,Pune,Maharashtra,919834428661,
Poona Diagnostic Centre Pimple Nilakh,Pune,Maharashtra,919503565887,
Vitara Healthcare Services,Pune,Maharashtra,918871077107,
Leo Diagnostics- NABH Pathology Diagnostic Lab for testosterone thyroid pregnancy FSH LH PRL and LFT blood test in Wakad,Pune,Maharashtra,919960778772,
Pinnacle Health Care Pathology Laboratory|pathology lab in Vishal nagar Pimple nilakh.,Pune,Maharashtra,917499699384,
SAMARTH PATH LAB,Pune,Maharashtra,919922734343,
Prakash Clinical Pathalogy Lab,Pune,Maharashtra,919850810479,
Astute Labs Pvt. Ltd Best for Medical Device Testing Labs in India,Pune,Maharashtra,919689944877,
SHREE CLINIC & SHREE DIAGNOSTIC (Redcliffe Labs)CENTRE,Pune,Maharashtra,919697441001,
Shree swami samartha diagnostic,Pune,Maharashtra,917066317311,
Yash Pathology Lab,Pune,Maharashtra,919730089274,
Shree Gajanan Pathological Laboratory,Pune,Maharashtra,919822883568,
eLabAssist LIMS,Pune,Maharashtra,917447789075,
Ayushman Pathology Lab and Polyclinic,Pune,Maharashtra,919890494737,
Aditya Pathology Laboratory,Pune,Maharashtra,918087607809,
DMS Diagnostics,Pune,Maharashtra,919146039603,
Chikitsa Diagnostic Centre,Pune,Maharashtra,919021515352,
General Diagnostic lab,Pune,Maharashtra,919921286692,
vinod medical and pathology lab,Pune,Maharashtra,919579777710,
Sahayog Pathology,Pune,Maharashtra,918237042424,
Excellent Pathology Laboratory,Pune,Maharashtra,919765374077,
Pioneer Diagnostic Centre,Pune,Maharashtra,917776073335,
Shri Swami Samarth Diagnostic Centre and Dental Clinic,Pune,Maharashtra,919699030760,
Suyog Aura,Pune,Maharashtra,919049165595,
tuljai Health Care,Pune,Maharashtra,918806022115,
Shivam Pathology Laboratory,Pune,Maharashtra,918329174694,
Parikshan Pathology Laboratory,Pune,Maharashtra,918766465138,
Harmony Healthcare Services (Pathology Lab),Pune,Maharashtra,919613070777,
Healthcare Clinical Laboratory,Pune,Maharashtra,919850969309,
DMS Diagnostics | Diagnostics Center in Kothrud | Color Doppler test in Kothrud | Digital X-ray in Kothrud,Pune,Maharashtra,919146039601,
Dhande Pathlab,Pune,Maharashtra,917507709258,
DMS Oncquest Laboratories,Pune,Maharashtra,919625310611,
Doctor's Point Clinic & RD Pathology Laboratory,Pune,Maharashtra,919021657460,
Satyam Pathology - Lab Collection Center,Pune,Maharashtra,918208754702,
Dr. Verify Diagnostics,Pune,Maharashtra,918530567401,
Kamal Diagnocare Baner,Pune,Maharashtra,918055334000,
healthcare 'nt' sickcare | Pathology Laboratory | Blood Test | Full Body Checkup | Diagnostic Centre | Aundh Pune,Pune,Maharashtra,919766060629,
Sahayog Pathology - Dhayari,Pune,Maharashtra,918007342424,
HS Pathology Laboratory & Diagnostics Centre,Pune,Maharashtra,917987723314,
V Care Pathology Lab,Pune,Maharashtra,919067344748,
Dhande Pathlab Dhayari,Pune,Maharashtra,917507726112,
SUNISHTH PATHOLOGY LAB,Pune,Maharashtra,918999717733,
Surepoint Diagnostics,Pune,Maharashtra,919049998651,
Dr Dengle,Pune,Maharashtra,917972922013,
Royal Pathology Laboratory,Pune,Maharashtra,919372412686,
Nucleus Diagnostics,Pune,Maharashtra,919168683959,
Jeevan Pathology Lab,Pune,Maharashtra,919096542282,
Mahimane Laboratory,Pune,Maharashtra,919657885181,
Snehdip Pathology Laboratory,Pune,Maharashtra,919850240190,
Krsnaa Diagnostics,Pune,Maharashtra,919325559121,
Pathology laboratory,Pune,Maharashtra,919657885181,
Pathocare Pathology Lab,Pune,Maharashtra,918181830505,
Sahyadri Speciality Labs,Pune,Maharashtra,917875161616,
Medicare Pathology Lab,Pune,Maharashtra,919834359264,
SHRADDHA DIAGNOSTICS - Pathology Lab | Sonography Center | Fetal 2D ECHO | Colour Doppler Pathology Lab,Pune,Maharashtra,917030044344,
SHREE DIAGNOSTICS,Pune,Maharashtra,917058654980,
SG Diagnostic Labs,Pune,Maharashtra,918669581212,
NITYASEVA PATHOLOGY LAB,Pune,Maharashtra,919822330017,
Vighnaharta Pathology Lab,Pune,Maharashtra,919096809949,
VISION Pathology Lab,Pune,Maharashtra,919371119175,
SHREE DIAGNOSTICS AUNDH - DR MAYUR KULKARNI,Pune,Maharashtra,918010866226,
Chaudhari Diagnostic Centre,Pune,Maharashtra,919545005888,
Lifecare Diagnostic & Research Centre Pvt Ltd,Pune,Maharashtra,917498960480,
AS Health Assist & Diagnostic Centre,Pune,Maharashtra,918856077780,
DR Sarode Path Lab ( Dr Harish Sarode MD),Pune,Maharashtra,919881073580,
Disha Diagnostic Centre,Pune,Maharashtra,919960720849,
Exo path labs,Pune,Maharashtra,919503188874,
SHREE PATHOLOGY LABORATORY,Pune,Maharashtra,917507104299,
HEALTH EXPRESS PATHOLOGY LAB PVT LTD,Pune,Maharashtra,919011121812,
Bignations Diagnostics,Pune,Maharashtra,917774020941,
Shrinath Diagnostic,Pune,Maharashtra,919226136568,
Shivansh laboratory,Pune,Maharashtra,919284449779,
SHREE DIAGNOSTIC CENTER,Pune,Maharashtra,919657381848,
V-Care Pathology Lab,Pune,Maharashtra,918459500150,